1 37438U 99025EHG 18201.30156149  .00000259  00000-0  17216-3 0  9997
2 37438  99.0240 230.2740 0029508 303.2893  56.5451 14.09992896527378
1 37439U 99025EHH 18203.94363523 +.00000604 +00000-0 +39680-3 0  9999
2 37439 099.2088 223.3170 0070188 076.1541 041.5918 14.04698805232606
1 37440U 99025EHJ 18203.10530809 +.00001270 +00000-0 +51741-3 0  9994
2 37440 098.9802 309.2468 0064686 006.2546 353.9427 14.28167625218052
